{"type": "FeatureCollection", "features": [ {"type": "Feature", "properties": {"norad_id": 41019, "name": "GPS BIIF-11 (PRN 10)", "group": "gnss", "lat": -40.6902233111858, "lon": -107.4470250813328, "alt_km": 19892.749829400647, "timestamp": "2025-12-03T15:48:03.316008+00:00", "meta": {"OBJECT_NAME": "GPS BIIF-11 (PRN 10)", "OBJECT_ID": "2015-062A", "EPOCH": "2025-12-01T20:11:25.978560", "MEAN_MOTION": 2.00566903, "ECCENTRICITY": 0.01105097, "INCLINATION": 56.8244, "RA_OF_ASC_NODE": 38.424, "ARG_OF_PERICENTER": 229.6519, "MEAN_ANOMALY": 129.4268, "EPHEMERIS_TYPE": 0, "CLASSIFICATION_TYPE": "U", "NORAD_CAT_ID": 41019, "ELEMENT_SET_NO": 999, "REV_AT_EPOCH": 7387, "BSTAR": 0, "MEAN_MOTION_DOT": -6.5e-07, "MEAN_MOTION_DDOT": 0}, "tle": {"line1": "1 41019U 15062A   25335.84127290 -.00000065  00000+0  00000+0 0  9990", "line2": "2 41019  56.8244  38.4240 0110509 229.6519 129.4268  2.00566903 73875"}}, "geometry": {"type": "Point", "coordinates": [-107.4470250813328, -40.6902233111858]}}, {"type": "Feature", "properties": {"norad_id": 41028, "name": "GSAT-15 (GAGAN/PRN 139)", "group": "gnss", "lat": 0.011251390595843328, "lon": 43.237112082968046, "alt_km": 35798.485286448114, "timestamp": "2025-12-03T15:48:03.316018+00:00", "meta": {"OBJECT_NAME": "GSAT-15 (GAGAN/PRN 139)", "OBJECT_ID": "2015-065A", "EPOCH": "2025-12-03T07:21:08.652960", "MEAN_MOTION": 1.0027202, "ECCENTRICITY": 0.00029792, "INCLINATION": 0.0284, "RA_OF_ASC_NODE": 83.2334, "ARG_OF_PERICENTER": 149.6615, "MEAN_ANOMALY": 43.2861, "EPHEMERIS_TYPE": 0, "CLASSIFICATION_TYPE": "U", "NORAD_CAT_ID": 41028, "ELEMENT_SET_NO": 999, "REV_AT_EPOCH": 3683, "BSTAR": 0, "MEAN_MOTION_DOT": -2.39e-06, "MEAN_MOTION_DDOT": 0}, "tle": {"line1": "1 41028U 15065A   25337.30635015 -.00000239  00000+0  00000+0 0  9998", "line2": "2 41028   0.0284  83.2334 0002979 149.6615  43.2861  1.00272020 36831"}}, "geometry": {"type": "Point", "coordinates": [43.237112082968046, 0.011251390595843328]}}, {"type": "Feature", "properties": {"norad_id": 41174, "name": "GSAT0209 (GALILEO 12)", "group": "gnss", "lat": -23.98573262280714, "lon": 88.94455188292369, "alt_km": 23219.12181779437, "timestamp": "2025-12-03T15:48:03.316028+00:00", "meta": {"OBJECT_NAME": "GSAT0209 (GALILEO 12)", "OBJECT_ID": "2015-079A", "EPOCH": "2025-12-01T22:43:10.411392", "MEAN_MOTION": 1.70474306, "ECCENTRICITY": 0.0002352, "INCLINATION": 55.7062, "RA_OF_ASC_NODE": 106.6773, "ARG_OF_PERICENTER": 357.4206, "MEAN_ANOMALY": 2.5431, "EPHEMERIS_TYPE": 0, "CLASSIFICATION_TYPE": "U", "NORAD_CAT_ID": 41174, "ELEMENT_SET_NO": 999, "REV_AT_EPOCH": 6141, "BSTAR": 0, "MEAN_MOTION_DOT": 3.5e-07, "MEAN_MOTION_DDOT": 0}, "tle": {"line1": "1 41174U 15079A   25335.94664828  .00000035  00000+0  00000+0 0  9990", "line2": "2 41174  55.7062 106.6773 0002352 357.4206   2.5431  1.70474306 61412"}}, "geometry": {"type": "Point", "coordinates": [88.94455188292369, -23.98573262280714]}}, {"type": "Feature", "properties": {"norad_id": 41175, "name": "GSAT0208 (GALILEO 11)", "group": "gnss", "lat": -12.72951269839271, "lon": -64.5294742117796, "alt_km": 23229.631321702404, "timestamp": "2025-12-03T15:48:03.316038+00:00", "meta": {"OBJECT_NAME": "GSAT0208 (GALILEO 11)", "OBJECT_ID": "2015-079B", "EPOCH": "2025-12-02T18:04:51.780576", "MEAN_MOTION": 1.70474153, "ECCENTRICITY": 0.00018919, "INCLINATION": 55.7052, "RA_OF_ASC_NODE": 106.6523, "ARG_OF_PERICENTER": 10.0407, "MEAN_ANOMALY": 349.9226, "EPHEMERIS_TYPE": 0, "CLASSIFICATION_TYPE": "U", "NORAD_CAT_ID": 41175, "ELEMENT_SET_NO": 999, "REV_AT_EPOCH": 6184, "BSTAR": 0, "MEAN_MOTION_DOT": 2.7e-07, "MEAN_MOTION_DDOT": 0}, "tle": {"line1": "1 41175U 15079B   25336.75337709  .00000027  00000+0  00000+0 0  9997", "line2": "2 41175  55.7052 106.6523 0001891  10.0407 349.9226  1.70474153 61844"}}, "geometry": {"type": "Point", "coordinates": [-64.5294742117796, -12.72951269839271]}}, {"type": "Feature", "properties": {"norad_id": 41241, "name": "IRNSS-1E", "group": "gnss", "lat": -0.5715795772095807, "lon": 61.67909966153128, "alt_km": 35876.96628433827, "timestamp": "2025-12-03T15:48:03.316049+00:00", "meta": {"OBJECT_NAME": "IRNSS-1E", "OBJECT_ID": "2016-003A", "EPOCH": "2025-12-02T15:46:14.293632", "MEAN_MOTION": 1.00278203, "ECCENTRICITY": 0.00219463, "INCLINATION": 32.8036, "RA_OF_ASC_NODE": 62.6001, "ARG_OF_PERICENTER": 186.4596, "MEAN_ANOMALY": 170.9534, "EPHEMERIS_TYPE": 0, "CLASSIFICATION_TYPE": "U", "NORAD_CAT_ID": 41241, "ELEMENT_SET_NO": 999, "REV_AT_EPOCH": 3610, "BSTAR": 0, "MEAN_MOTION_DOT": -3.03e-06, "MEAN_MOTION_DDOT": 0}, "tle": {"line1": "1 41241U 16003A   25336.65710988 -.00000303  00000+0  00000+0 0  9990", "line2": "2 41241  32.8036  62.6001 0021946 186.4596 170.9534  1.00278203 36104"}}, "geometry": {"type": "Point", "coordinates": [61.67909966153128, -0.5715795772095807]}}, {"type": "Feature", "properties": {"norad_id": 41328, "name": "GPS BIIF-12 (PRN 32)", "group": "gnss", "lat": 7.610364746258027, "lon": -88.08457543877088, "alt_km": 20106.915213182696, "timestamp": "2025-12-03T15:48:03.316060+00:00", "meta": {"OBJECT_NAME": "GPS BIIF-12 (PRN 32)", "OBJECT_ID": "2016-007A", "EPOCH": "2025-12-01T22:09:54.041760", "MEAN_MOTION": 2.0056114, "ECCENTRICITY": 0.00916487, "INCLINATION": 55.3999, "RA_OF_ASC_NODE": 97.2864, "ARG_OF_PERICENTER": 243.3101, "MEAN_ANOMALY": 115.7282, "EPHEMERIS_TYPE": 0, "CLASSIFICATION_TYPE": "U", "NORAD_CAT_ID": 41328, "ELEMENT_SET_NO": 999, "REV_AT_EPOCH": 7188, "BSTAR": 0, "MEAN_MOTION_DOT": 1.1e-07, "MEAN_MOTION_DDOT": 0}, "tle": {"line1": "1 41328U 16007A   25335.92354215  .00000011  00000+0  00000+0 0  9991", "line2": "2 41328  55.3999  97.2864 0091648 243.3101 115.7282  2.00561140 71887"}}, "geometry": {"type": "Point", "coordinates": [-88.08457543877088, 7.610364746258027]}}, {"type": "Feature", "properties": {"norad_id": 41330, "name": "COSMOS 2514 (751)", "group": "gnss", "lat": 37.325601096199605, "lon": -19.58676782824716, "alt_km": 19157.37928856736, "timestamp": "2025-12-03T15:48:03.316070+00:00", "meta": {"OBJECT_NAME": "COSMOS 2514 (751)", "OBJECT_ID": "2016-008A", "EPOCH": "2025-12-02T04:41:58.161984", "MEAN_MOTION": 2.13102491, "ECCENTRICITY": 0.00124931, "INCLINATION": 65.1398, "RA_OF_ASC_NODE": 319.7653, "ARG_OF_PERICENTER": 219.8518, "MEAN_ANOMALY": 140.0636, "EPHEMERIS_TYPE": 0, "CLASSIFICATION_TYPE": "U", "NORAD_CAT_ID": 41330, "ELEMENT_SET_NO": 999, "REV_AT_EPOCH": 7642, "BSTAR": 0, "MEAN_MOTION_DOT": -3.3e-07, "MEAN_MOTION_DDOT": 0}, "tle": {"line1": "1 41330U 16008A   25336.19581206 -.00000033  00000+0  00000+0 0  9992", "line2": "2 41330  65.1398 319.7653 0012493 219.8518 140.0636  2.13102491 76424"}}, "geometry": {"type": "Point", "coordinates": [-19.58676782824716, 37.325601096199605]}}, {"type": "Feature", "properties": {"norad_id": 41384, "name": "IRNSS-1F", "group": "gnss", "lat": -4.233994955925054, "lon": -17.72370999218905, "alt_km": 35742.50515603065, "timestamp": "2025-12-03T15:48:03.316081+00:00", "meta": {"OBJECT_NAME": "IRNSS-1F", "OBJECT_ID": "2016-015A", "EPOCH": "2025-12-03T01:55:20.988192", "MEAN_MOTION": 1.00267525, "ECCENTRICITY": 0.00224023, "INCLINATION": 4.8561, "RA_OF_ASC_NODE": 101.5395, "ARG_OF_PERICENTER": 179.5147, "MEAN_ANOMALY": 212.3606, "EPHEMERIS_TYPE": 0, "CLASSIFICATION_TYPE": "U", "NORAD_CAT_ID": 41384, "ELEMENT_SET_NO": 999, "REV_AT_EPOCH": 3570, "BSTAR": 0, "MEAN_MOTION_DOT": 1.77e-06, "MEAN_MOTION_DDOT": 0}, "tle": {"line1": "1 41384U 16015A   25337.08010403  .00000177  00000+0  00000+0 0  9992", "line2": "2 41384   4.8561 101.5395 0022402 179.5147 212.3606  1.00267525 35707"}}, "geometry": {"type": "Point", "coordinates": [-17.72370999218905, -4.233994955925054]}}, {"type": "Feature", "properties": {"norad_id": 41434, "name": "BEIDOU-2 IGSO-6 (C13)", "group": "gnss", "lat": 1.7893855300149026, "lon": 41.06022126638054, "alt_km": 35954.01320586519, "timestamp": "2025-12-03T15:48:03.316092+00:00", "meta": {"OBJECT_NAME": "BEIDOU-2 IGSO-6 (C13)", "OBJECT_ID": "2016-021A", "EPOCH": "2025-12-01T15:57:35.287200", "MEAN_MOTION": 1.00256562, "ECCENTRICITY": 0.00591323, "INCLINATION": 59.9483, "RA_OF_ASC_NODE": 40.0119, "ARG_OF_PERICENTER": 231.2834, "MEAN_ANOMALY": 130.8807, "EPHEMERIS_TYPE": 0, "CLASSIFICATION_TYPE": "U", "NORAD_CAT_ID": 41434, "ELEMENT_SET_NO": 999, "REV_AT_EPOCH": 3550, "BSTAR": 0, "MEAN_MOTION_DOT": -1.55e-06, "MEAN_MOTION_DDOT": 0}, "tle": {"line1": "1 41434U 16021A   25335.66499175 -.00000155  00000+0  00000+0 0  9991", "line2": "2 41434  59.9483  40.0119 0059132 231.2834 130.8807  1.00256562 35501"}}, "geometry": {"type": "Point", "coordinates": [41.06022126638054, 1.7893855300149026]}}, {"type": "Feature", "properties": {"norad_id": 41469, "name": "IRNSS-1G", "group": "gnss", "lat": -1.8231383588227132, "lon": 79.26567612634449, "alt_km": 35783.36464877018, "timestamp": "2025-12-03T15:48:03.316102+00:00", "meta": {"OBJECT_NAME": "IRNSS-1G", "OBJECT_ID": "2016-027A", "EPOCH": "2025-12-03T07:31:19.049952", "MEAN_MOTION": 1.00266124, "ECCENTRICITY": 0.00013959, "INCLINATION": 4.7136, "RA_OF_ASC_NODE": 102.3315, "ARG_OF_PERICENTER": 15.6399, "MEAN_ANOMALY": 196.7364, "EPHEMERIS_TYPE": 0, "CLASSIFICATION_TYPE": "U", "NORAD_CAT_ID": 41469, "ELEMENT_SET_NO": 999, "REV_AT_EPOCH": 3521, "BSTAR": 0, "MEAN_MOTION_DOT": -3.17e-06, "MEAN_MOTION_DDOT": 0}, "tle": {"line1": "1 41469U 16027A   25337.31341493 -.00000317  00000+0  00000+0 0  9998", "line2": "2 41469   4.7136 102.3315 0001395  15.6399 196.7364  1.00266124 35212"}}, "geometry": {"type": "Point", "coordinates": [79.26567612634449, -1.8231383588227132]}}]}